#dP2023  1 13  6  0  0.00000000      96 __u+U ITR00 EXT  IAC
## 2244 453600.00000000   900.00000000 59957 0.2500000000000
+  117   C06C07C08C09C10C11C12C13C14C16C19C20C21C22C23C25C26
+        C27C28C29C30C32C33C34C35C36C37C38C39C40C41C42C43C44
+        C45C46E01E02E03E04E05E07E08E09E10E11E12E13E14E15E18
+        E19E21E24E25E26E27E30E31E33E34E36G01G02G03G04G05G06
+        G07G08G09G10G11G12G13G14G15G16G17G18G19G20G21G23G24
+        G25G26G27G29G30G31G32J02J03J04R01R02R03R04R05R07R08
+        R09R11R12R13R14R15R16R17R18R19R20R21R22R24R25  0  0
++         9  9  9  9  9  8  8 10  9  9  9 10  9 10  8  9  9
++         8  8  9  8  9 10  7 10  8  9 10 11 10  9 10  8 10
++         9  9  8  8  8  8  8  8  8  8  8  8  8  8 10  8  8
++         8  8  9  8  8  8  8  8  8  8  8  8  8  8  8  8  8
++         8  8  8  8  8  8  8  9  8  8  8  8  8  8  8  8  8
++         8  8  8  9  8  8  8  9  9  9  9  9  8  9  8 10  8
++         9  9  8  9  8  9  9  8  8  8  9  9  9  8  9  0  0
%c M  cc GPS ccc cccc cccc cccc cccc ccccc ccccc ccccc ccccc
%c cc cc ccc ccc cccc cccc cccc cccc ccccc ccccc ccccc ccccc
%f  0.0000000  0.000000000  0.00000000000  0.000000000000000
%f  0.0000000  0.000000000  0.00000000000  0.000000000000000
%i    0    0    0    0      0      0      0      0         0
%i    0    0    0    0      0      0      0      0         0
/* IAC                                ULTRA-RAPID PREDICTION
/* S/V CLOCKS ARE ALIGNED TO GNSS TIME                      
/* G:C1WC2W R:C1PC2P E:C1XC5X C:C2IC6I J:C1CC2S             
/* PCV:IGS20_2239 OL/AL:FES2004  NONE     YN ORB:CoN CLK:CoN
*  2023 01 13 22  0  0.00000000
PC06  -7522.478491  40597.090757   9196.635107   -184.919375
PC07  -4850.662746  27185.349487 -31781.372769     20.089213
PC08 -18102.481108  27827.355406  25910.562253    527.593140
PC09  -3796.617350  42270.231260   1427.635294    249.871843
PC10   1490.944067  28629.433551 -30498.041585     32.819461
PC11  -1379.428914  27027.092152  -6694.206293   -179.625813
PC12 -11652.225098  15091.127146 -20330.966183    396.069850
PC13 -12273.447924  28553.069896  28517.704641    182.602363
PC14    414.899101  16673.536227  22382.247303    365.414283
PC16  -8661.168302  39818.590134  11594.825672     82.534887
PC19 -11098.161949 -17847.918093 -18340.900476   -897.217458
PC20   8268.087198 -13551.280542 -22937.426407    768.393012
PC21 -24145.287605    683.529993  14004.060253   -917.112445
PC22 -24980.797448 -12109.545562  -2945.819633   -687.320462
PC23  16707.771885   6496.555133 -21393.864614   -871.489763
PC25    680.080147  18728.512003 -20682.209799     55.038418
PC26 -23857.264775  11160.132252   9145.374207    -63.893569
PC27  15111.307933  -5870.207703  22696.355820     81.131466
PC28  15063.895335  14055.181651  18829.194705     58.572575
PC29  -6728.748020 -26922.940947  -2916.928435     67.044592
PC30   6308.700884 -22956.473918  14535.095774      1.283093
PC32  24172.538974   -800.600962 -13902.655074   -651.200974
PC33  11053.960238  17812.197228  18418.574879   -881.249054
PC34  -5578.821829  23750.978286 -13577.269671     83.014405
PC35 -15302.061157 -14836.770482 -17998.462974    367.361313
PC36    466.231316 -19050.421803  20405.209279   -696.871931
PC37  24111.678623  -9527.376307 -10359.733068   -848.732377
PC38 -23945.411245  29347.503985  18392.464519     51.750471
PC39 -10240.999424  37027.385249  17637.625522     -1.401551
PC40  -9000.887176  21331.258863 -35224.516205    -12.462792
PC41  24756.639219  12381.846620   3602.358437   -490.504329
PC42  -9643.500667  12989.339497  22782.641713   -897.658790
PC43   6164.520824  27146.910347   2128.205222      1.928254
PC44 -15081.651799   6263.181168 -22640.482658    176.336523
PC45 -16895.277562  -6093.354352  21342.881937    -47.164718
PC46  16779.787087 -20702.990993   8349.685038    -26.227868
PE01   5834.642943  15979.121726 -24227.984730   -594.334279
PE02  -6214.783721 -15895.995746  24174.955428     14.527386
PE03 -12447.821951 -25636.480074  -8018.676615   -639.629723
PE04  21967.903467  17034.407448 -10174.166177    -35.532888
PE05   4630.303058 -19345.965469 -21919.326830   -105.474132
PE07 -18783.841800   1799.556459  22807.855909    -14.929140
PE08 -21941.105864 -17098.151380  10125.843879    -18.963388
PE09  18764.713806  -1565.827090 -22837.954973   -799.009969
PE10  17355.735550  -1704.405510  23918.258267   -504.864820
PE11  18676.684263 -13148.697543  18816.991361    446.674737
PE12  13581.900519   9046.846579  24701.470906   -383.078313
PE13 -18622.767455  12321.835871 -19423.975812    429.943681
PE14  10544.213536  22467.333015  -2573.260857    112.567389
PE15 -13361.420782  -9317.927783 -24701.919884    694.358731
PE18 -21022.401624 -22148.821738  -9058.068416   -512.783709
PE19  10366.348121  25692.391881  10435.236821  -3494.547915
PE21 -14707.211885  15800.167072 -20253.093808   -506.079712
PE24  28796.386271  -5936.009090   3553.223031  -1056.360690
PE25  15056.468425 -15716.713042  20069.166413   -597.113353
PE26 -12518.514425  26748.854929  -1975.075673  -1852.298505
PE27 -28500.794087   6607.923392  -4432.006278   -486.981472
PE30 -24918.627070  -6934.506523  14359.195324  -1157.908481
PE31  25385.860360   6376.592841 -13832.993414   -513.238458
PE33    255.192285  25305.756533  15371.233826   -454.274695
PE34   -417.362187 -25223.674113 -15487.781415    -24.679394
PE36  12921.885222 -26473.871361   2848.936268   -489.989068
PG01  14071.286002 -21961.095771   3577.953555    224.812669
PG02 -10400.716571  24533.875516   -679.579683   -627.482225
PG03  16230.770358 -12453.787034 -17000.316903   -372.320894
PG04   5985.794128 -16626.785257 -19790.951270    -49.311726
PG05 -25682.891223   5552.014878   4113.630264   -111.870872
PG06 -10299.478361 -11229.071611 -21671.705174    557.968584
PG07   4163.757061 -24154.536022  10008.323379    259.263279
PG08  14364.867746  -5752.368264  21568.498676   -103.411171
PG09  -4605.730814 -22750.673549 -12944.789382   -236.967381
PG10  15338.053017  11633.061677  18605.683336    -20.287571
PG11 -17167.390412   1946.036514 -20152.474498    -78.089581
PG12 -18078.610832  11019.707545 -16248.610964   -327.740816
PG13 -16802.790773  -2950.773373  20231.259701    458.864089
PG14 -12466.533122 -13450.685837  19259.859453    -49.948688
PG15 -13718.367357   7901.908034  20898.746236      4.370149
PG16  26781.419303      8.519815   1113.433098   -523.928720
PG17 -12570.360684 -23329.741327   1077.040922    693.132266
PG18  -2687.042664  23280.714475  12365.610056    -97.894951
PG19 -17142.853388 -17705.410549 -10475.339825    263.716183
PG20 -25250.232337    -40.402871  -7846.682123    457.255664
PG21  16314.553220 -16264.606597  13070.785088    153.424360
PG23   2910.024034  14744.785742  21904.818556      2.399868
PG24 -14496.782961  20336.323408   8046.166668    -28.643687
PG25  -7981.408212  15148.740958 -20539.093410    411.034696
PG26  23686.018274   5413.031275 -11226.534748    240.248869
PG27  18759.196400   6331.128402  17673.996424    127.804875
PG29    657.152082  21912.724029 -14982.819514   -580.213390
PG30  -5744.316467 -18352.087587  18304.173751   -533.331789
PG31  12296.030292   9563.271914 -21643.621662   -206.237705
PG32  15870.915342  21346.793587  -1787.407837   -363.024119
PJ02 -34642.713500  16115.087642 -13241.922077     -0.562481
PJ03 -20346.075539  31556.438716 -14391.040455     -0.070808
PJ04 -26808.905533  27546.398513  23530.948476    118.648724
PR01 -19279.293158  -2267.756997  16552.912742     21.194791
PR02  -4168.663920  10173.794533  23061.979233    -23.304429
PR03  12389.669625  16332.651923  15265.243206     70.807323
PR04  21683.157236  13428.600365   -782.259760    172.198188
PR05  19240.617215   3280.420587 -16429.466735    106.134795
PR07 -12988.789944 -16349.176936 -14574.680755     47.953003
PR08 -21797.743099 -13173.678422   1086.301796    -68.997516
PR09  15611.602532 -15814.409664  12469.685038     98.406124
PR11 -15480.429023  -2423.001649  20137.341931      6.639427
PR12 -23075.272067   9632.648535   5002.701252     24.292524
PR13 -17048.238119  15428.899548 -11057.368171    -30.918505
PR14    259.205898  12218.055745 -22386.359304     24.217723
PR15  16309.332453   1932.646041 -19505.476430     91.724436
PR16  22969.380445  -9687.332197  -5338.923693      9.926113
PR17   2153.975819  24393.794891   7089.697733    595.518355
PR18   8364.676129  13265.236859  20157.088566     61.643096
PR19  10515.032598  -3102.200123  23038.018716   -218.113718
PR20   6825.260583 -21825.964556  11269.453021    -85.800864
PR21  -2709.988355 -23847.450773  -8666.960630   -365.207838
PR22  -8473.463682 -12764.638268 -20358.724433     66.495257
PR24  -6095.374045  22406.069642 -10523.146423    139.429758
PR25   -874.176172 -24618.115441  -6649.647514     51.526785
EOF
